[{"OBJECT_NAME":"TRANSPORTER-11 OBJECT BF","OBJECT_ID":"2024-149BF","EPOCH":"2026-03-09T16:59:51.479808","MEAN_MOTION":15.59997231,"ECCENTRICITY":0.00034224,"INCLINATION":97.3818,"RA_OF_ASC_NODE":159.1799,"ARG_OF_PERICENTER":238.2846,"MEAN_ANOMALY":121.8078,"EPHEMERIS_TYPE":0,"CLASSIFICATION_TYPE":"U","NORAD_CAT_ID":60521,"ELEMENT_SET_NO":999,"REV_AT_EPOCH":8747,"BSTAR":0.00094090454,"MEAN_MOTION_DOT":0.00076484,"MEAN_MOTION_DDOT":0},{"OBJECT_NAME":"STARLINK-36533","OBJECT_ID":"2026-020AC","EPOCH":"2026-03-09T16:00:06.953760","MEAN_MOTION":15.67305458,"ECCENTRICITY":0.0003498,"INCLINATION":42.9984,"RA_OF_ASC_NODE":142.2096,"ARG_OF_PERICENTER":341.2459,"MEAN_ANOMALY":18.8278,"EPHEMERIS_TYPE":0,"CLASSIFICATION_TYPE":"U","NORAD_CAT_ID":67643,"ELEMENT_SET_NO":999,"REV_AT_EPOCH":608,"BSTAR":-0.0046634327,"MEAN_MOTION_DOT":-0.00488163,"MEAN_MOTION_DDOT":0}]
