TRANSPORTER-11 OBJECT BF
1 60521U 24149BF  26068.70823471  .00076484  00000+0  94090-3 0  9991
2 60521  97.3818 159.1799 0003422 238.2846 121.8078 15.59997231 87471
STARLINK-36533          
1 67643U 26020AC  26068.66674715 -.00488163  00000+0 -46634-2 0  9996
2 67643  42.9984 142.2096 0003498 341.2459  18.8278 15.67305458  6082
